{
  "type": "FeatureCollection",
  "features": [
    {
      "type": "Feature",
      "properties": {
        "norad_id": 35052,
        "name": "IRIDIUM 33 DEB",
        "group": "iridium-33-debris",
        "lat": -77.85755642781612,
        "lon": 7.109889836404352,
        "alt_km": 780.533921636873,
        "timestamp": "2025-12-03T10:52:57.840282+00:00",
        "meta_object_name": "IRIDIUM 33 DEB",
        "meta_object_id": "1997-051NY",
        "meta_epoch": "2025-12-03T02:54:00.517248",
        "meta_mean_motion": 14.38473669,
        "meta_eccentricity": 0.0013554,
        "meta_inclination": 86.3318,
        "meta_ra_of_asc_node": 24.5996,
        "meta_arg_of_pericenter": 111.8455,
        "meta_mean_anomaly": 248.4186,
        "meta_ephemeris_type": 0,
        "meta_classification_type": "U",
        "meta_norad_cat_id": 35052,
        "meta_element_set_no": 999,
        "meta_rev_at_epoch": 87137,
        "meta_bstar": 0.00025736,
        "meta_mean_motion_dot": 8.06e-06,
        "meta_mean_motion_ddot": 0,
        "tle_line1": "1 35052U 97051NY  25337.12083932  .00000806  00000+0  25736-3 0  9994",
        "tle_line2": "2 35052  86.3318  24.5996 0013554 111.8455 248.4186 14.38473669871374"
      },
      "geometry": {
        "type": "Point",
        "coordinates": [
          7.109889836404352,
          -77.85755642781612
        ]
      }
    },
    {
      "type": "Feature",
      "properties": {
        "norad_id": 35080,
        "name": "IRIDIUM 33 DEB",
        "group": "iridium-33-debris",
        "lat": -20.410327101401805,
        "lon": 55.39347120236834,
        "alt_km": 649.4143509211353,
        "timestamp": "2025-12-03T10:52:57.840293+00:00",
        "meta_object_name": "IRIDIUM 33 DEB",
        "meta_object_id": "1997-051PF",
        "meta_epoch": "2025-12-03T04:30:09.217152",
        "meta_mean_motion": 14.84042089,
        "meta_eccentricity": 0.0063932,
        "meta_inclination": 86.2067,
        "meta_ra_of_asc_node": 56.9348,
        "meta_arg_of_pericenter": 212.1182,
        "meta_mean_anomaly": 147.6141,
        "meta_ephemeris_type": 0,
        "meta_classification_type": "U",
        "meta_norad_cat_id": 35080,
        "meta_element_set_no": 999,
        "meta_rev_at_epoch": 69546,
        "meta_bstar": 0.011299,
        "meta_mean_motion_dot": 0.00098836,
        "meta_mean_motion_ddot": 0,
        "tle_line1": "1 35080U 97051PF  25337.18760668  .00098836  00000+0  11299-1 0  9996",
        "tle_line2": "2 35080  86.2067  56.9348 0063932 212.1182 147.6141 14.84042089695466"
      },
      "geometry": {
        "type": "Point",
        "coordinates": [
          55.39347120236834,
          -20.410327101401805
        ]
      }
    },
    {
      "type": "Feature",
      "properties": {
        "norad_id": 35297,
        "name": "IRIDIUM 33 DEB",
        "group": "iridium-33-debris",
        "lat": -33.12005440225718,
        "lon": 64.35900947500494,
        "alt_km": 758.7296554261166,
        "timestamp": "2025-12-03T10:52:57.840304+00:00",
        "meta_object_name": "IRIDIUM 33 DEB",
        "meta_object_id": "1997-051PM",
        "meta_epoch": "2025-11-28T13:02:32.385696",
        "meta_mean_motion": 14.4505178,
        "meta_eccentricity": 0.00162447,
        "meta_inclination": 86.3859,
        "meta_ra_of_asc_node": 68.817,
        "meta_arg_of_pericenter": 185.2069,
        "meta_mean_anomaly": 174.8967,
        "meta_ephemeris_type": 0,
        "meta_classification_type": "U",
        "meta_norad_cat_id": 35297,
        "meta_element_set_no": 999,
        "meta_rev_at_epoch": 70221,
        "meta_bstar": 0.00072341306,
        "meta_mean_motion_dot": 2.549e-05,
        "meta_mean_motion_ddot": 0,
        "tle_line1": "1 35297U 97051PM  25332.54343039  .00002549  00000+0  72341-3 0  9993",
        "tle_line2": "2 35297  86.3859  68.8170 0016244 185.2069 174.8967 14.45051780702214"
      },
      "geometry": {
        "type": "Point",
        "coordinates": [
          64.35900947500494,
          -33.12005440225718
        ]
      }
    },
    {
      "type": "Feature",
      "properties": {
        "norad_id": 35299,
        "name": "IRIDIUM 33 DEB",
        "group": "iridium-33-debris",
        "lat": 42.32614774378391,
        "lon": 40.61684476044808,
        "alt_km": 751.8642631943349,
        "timestamp": "2025-12-03T10:52:57.840314+00:00",
        "meta_object_name": "IRIDIUM 33 DEB",
        "meta_object_id": "1997-051PP",
        "meta_epoch": "2025-12-03T04:09:01.499328",
        "meta_mean_motion": 14.4078031,
        "meta_eccentricity": 0.0058614,
        "meta_inclination": 86.2893,
        "meta_ra_of_asc_node": 37.3504,
        "meta_arg_of_pericenter": 132.8527,
        "meta_mean_anomaly": 256.2919,
        "meta_ephemeris_type": 0,
        "meta_classification_type": "U",
        "meta_norad_cat_id": 35299,
        "meta_element_set_no": 999,
        "meta_rev_at_epoch": 86193,
        "meta_bstar": 0.001078,
        "meta_mean_motion_dot": 3.539e-05,
        "meta_mean_motion_ddot": 0,
        "tle_line1": "1 35299U 97051PP  25337.17293402  .00003539  00000+0  10780-2 0  9995",
        "tle_line2": "2 35299  86.2893  37.3504 0058614 132.8527 256.2919 14.40780310861939"
      },
      "geometry": {
        "type": "Point",
        "coordinates": [
          40.61684476044808,
          42.32614774378391
        ]
      }
    },
    {
      "type": "Feature",
      "properties": {
        "norad_id": 35480,
        "name": "IRIDIUM 33 DEB",
        "group": "iridium-33-debris",
        "lat": -26.23232512705777,
        "lon": -149.26365878979632,
        "alt_km": 729.4836382851217,
        "timestamp": "2025-12-03T10:52:57.840324+00:00",
        "meta_object_name": "IRIDIUM 33 DEB",
        "meta_object_id": "1997-051QA",
        "meta_epoch": "2025-12-01T21:29:27.496896",
        "meta_mean_motion": 14.49686619,
        "meta_eccentricity": 0.00155495,
        "meta_inclination": 86.3575,
        "meta_ra_of_asc_node": 29.6125,
        "meta_arg_of_pericenter": 136.7189,
        "meta_mean_anomaly": 223.524,
        "meta_ephemeris_type": 0,
        "meta_classification_type": "U",
        "meta_norad_cat_id": 35480,
        "meta_element_set_no": 999,
        "meta_rev_at_epoch": 86874,
        "meta_bstar": 0.000651702,
        "meta_mean_motion_dot": 2.53e-05,
        "meta_mean_motion_ddot": 0,
        "tle_line1": "1 35480U 97051QA  25335.89545714  .00002530  00000+0  65170-3 0  9994",
        "tle_line2": "2 35480  86.3575  29.6125 0015549 136.7189 223.5240 14.49686619868745"
      },
      "geometry": {
        "type": "Point",
        "coordinates": [
          -149.26365878979632,
          -26.23232512705777
        ]
      }
    },
    {
      "type": "Feature",
      "properties": {
        "norad_id": 35484,
        "name": "IRIDIUM 33 DEB",
        "group": "iridium-33-debris",
        "lat": -13.270870364315737,
        "lon": 177.94786488916006,
        "alt_km": 566.5241590111937,
        "timestamp": "2025-12-03T10:52:57.840335+00:00",
        "meta_object_name": "IRIDIUM 33 DEB",
        "meta_object_id": "1997-051QE",
        "meta_epoch": "2025-12-01T19:32:14.692416",
        "meta_mean_motion": 14.97587734,
        "meta_eccentricity": 0.00218288,
        "meta_inclination": 86.3628,
        "meta_ra_of_asc_node": 357.8533,
        "meta_arg_of_pericenter": 162.6444,
        "meta_mean_anomaly": 197.5538,
        "meta_ephemeris_type": 0,
        "meta_classification_type": "U",
        "meta_norad_cat_id": 35484,
        "meta_element_set_no": 999,
        "meta_rev_at_epoch": 61852,
        "meta_bstar": 0.0025030806,
        "meta_mean_motion_dot": 0.00029486,
        "meta_mean_motion_ddot": 0,
        "tle_line1": "1 35484U 97051QE  25335.81405894  .00029486  00000+0  25031-2 0  9994",
        "tle_line2": "2 35484  86.3628 357.8533 0021828 162.6444 197.5538 14.97587734618526"
      },
      "geometry": {
        "type": "Point",
        "coordinates": [
          177.94786488916006,
          -13.270870364315737
        ]
      }
    },
    {
      "type": "Feature",
      "properties": {
        "norad_id": 35488,
        "name": "IRIDIUM 33 DEB",
        "group": "iridium-33-debris",
        "lat": 84.45419557008636,
        "lon": 83.68666151090636,
        "alt_km": 593.5141144197569,
        "timestamp": "2025-12-03T10:52:57.840346+00:00",
        "meta_object_name": "IRIDIUM 33 DEB",
        "meta_object_id": "1997-051QJ",
        "meta_epoch": "2025-12-02T15:01:28.223904",
        "meta_mean_motion": 14.82653192,
        "meta_eccentricity": 0.0030768,
        "meta_inclination": 86.3233,
        "meta_ra_of_asc_node": 305.5399,
        "meta_arg_of_pericenter": 74.7602,
        "meta_mean_anomaly": 285.7019,
        "meta_ephemeris_type": 0,
        "meta_classification_type": "U",
        "meta_norad_cat_id": 35488,
        "meta_element_set_no": 999,
        "meta_rev_at_epoch": 88116,
        "meta_bstar": 0.0017350437,
        "meta_mean_motion_dot": 0.00014134,
        "meta_mean_motion_ddot": 0,
        "tle_line1": "1 35488U 97051QJ  25336.62602111  .00014134  00000+0  17350-2 0  9998",
        "tle_line2": "2 35488  86.3233 305.5399 0030768  74.7602 285.7019 14.82653192881166"
      },
      "geometry": {
        "type": "Point",
        "coordinates": [
          83.68666151090636,
          84.45419557008636
        ]
      }
    }
  ]
}